[{"OBJECT_NAME":"IOD-1","OBJECT_ID":"2025-052C","EPOCH":"2026-03-09T16:59:56.534208","MEAN_MOTION":15.43584061,"ECCENTRICITY":0.00043456,"INCLINATION":97.3948,"RA_OF_ASC_NODE":328.1719,"ARG_OF_PERICENTER":101.0631,"MEAN_ANOMALY":259.1106,"EPHEMERIS_TYPE":0,"CLASSIFICATION_TYPE":"U","NORAD_CAT_ID":63212,"ELEMENT_SET_NO":999,"REV_AT_EPOCH":5509,"BSTAR":0.00099902615,"MEAN_MOTION_DOT":0.00045025,"MEAN_MOTION_DDOT":0},{"OBJECT_NAME":"CZ-2C R\/B","OBJECT_ID":"2024-007B","EPOCH":"2026-03-09T13:33:21.523680","MEAN_MOTION":15.39758847,"ECCENTRICITY":0.00678111,"INCLINATION":29.0105,"RA_OF_ASC_NODE":269.6864,"ARG_OF_PERICENTER":313.7067,"MEAN_ANOMALY":45.794,"EPHEMERIS_TYPE":0,"CLASSIFICATION_TYPE":"U","NORAD_CAT_ID":58754,"ELEMENT_SET_NO":999,"REV_AT_EPOCH":12080,"BSTAR":0.0004050997,"MEAN_MOTION_DOT":0.00018271,"MEAN_MOTION_DDOT":0}]
